NORAD_CAT_ID,OBJECT_NAME,OBJECT_TYPE,EPOCH,MEAN_MOTION,ECCENTRICITY,INCLINATION,RA_OF_ASC_NODE,ARG_OF_PERICENTER,MEAN_ANOMALY,BSTAR,MEAN_MOTION_DOT,MEAN_MOTION_DDOT,TLE_LINE0,TLE_LINE1,TLE_LINE2,SEMIMAJOR_AXIS,PERIOD,APOGEE,PERIGEE,DECAYED
54773.0,STARLINK-5453,PAYLOAD,2023-03-28 13:53:35,15.08857671,0.000158,53.2177,199.3285,71.7461,288.3703,-9.4761e-05,-1.797e-05,0.0,0 STARLINK-5453,1 54773U 22175R   23087.57888742 -.00001797  00000-0 -94761-4 0  9999,2 54773  53.2177 199.3285 0001580  71.7461 288.3703 15.08857671 15151,6917.826,95.436,540.784,538.598,0.0
54773.0,STARLINK-5453,PAYLOAD,2023-03-28 17:04:21,15.08867808,0.0001169,53.2172,198.7331,90.284,269.8286,7.0222e-05,8.31e-06,0.0,0 STARLINK-5453,1 54773U 22175R   23087.71135893  .00000831  00000-0  70222-4 0  9999,2 54773  53.2172 198.7331 0001169  90.2840 269.8286 15.08867808 15176,6917.795,95.436,540.469,538.852,0.0
54773.0,STARLINK-5453,PAYLOAD,2023-03-29 07:22:50,15.08839098,8.58e-05,53.216,196.0614,68.2775,291.8308,2.6316e-05,1.31e-06,0.0,0 STARLINK-5453,1 54773U 22175R   23088.30753213  .00000131  00000-0  26316-4 0  9995,2 54773  53.2160 196.0614 0000858  68.2775 291.8308 15.08839098 15264,6917.883,95.438,540.342,539.155,0.0
54773.0,STARLINK-5453,PAYLOAD,2023-03-29 12:09:00,15.08843827,0.0001106,53.2162,195.1688,77.249,282.8626,9.1101e-05,1.163e-05,0.0,0 STARLINK-5453,1 54773U 22175R   23088.50625027  .00001163  00000-0  91101-4 0  9998,2 54773  53.2162 195.1688 0001106  77.2490 282.8626 15.08843827 17459,6917.869,95.437,540.499,538.969,0.0
54773.0,STARLINK-5453,PAYLOAD,2023-03-29 13:44:22,15.0885276,0.0001382,53.2172,194.8662,108.8272,251.287,6.7696e-05,7.9e-06,0.0,0 STARLINK-5453,1 54773U 22175R   23088.57248468  .00000790  00000-0  67696-4 0  9992,2 54773  53.2172 194.8662 0001382 108.8272 251.2870 15.08852760 15302,6917.841,95.437,540.662,538.75,0.0
54773.0,STARLINK-5453,PAYLOAD,2023-03-30 13:35:09,15.08847437,0.0001165,53.2159,190.4105,92.4339,267.6786,0.00022064,3.226e-05,0.0,0 STARLINK-5453,1 54773U 22175R   23089.56608795  .00003226  00000-0  22064-3 0  9991,2 54773  53.2159 190.4105 0001165  92.4339 267.6786 15.08847437 15450,6917.858,95.437,540.529,538.917,0.0
54773.0,STARLINK-5453,PAYLOAD,2023-03-31 05:29:01,15.08838776,9.48e-05,53.2162,187.4354,102.3425,257.7673,0.00012115,1.641e-05,0.0,0 STARLINK-5453,1 54773U 22175R   23090.22849152  .00001641  00000-0  12115-3 0  9995,2 54773  53.2162 187.4354 0000948 102.3425 257.7673 15.08838776 15553,6917.884,95.438,540.405,539.093,0.0
54773.0,STARLINK-5453,PAYLOAD,2023-04-01 13:16:44,15.08836362,9.6e-05,53.2166,181.4889,80.2747,279.8353,-3.959e-05,-9.18e-06,0.0,0 STARLINK-5453,1 54773U 22175R   23091.55329625 -.00000918  00000-0 -39590-4 0  9995,2 54773  53.2166 181.4889 0000960  80.2747 279.8353 15.08836362 15750,6917.892,95.438,540.421,539.092,0.0
54773.0,STARLINK-5453,PAYLOAD,2023-04-02 13:07:31,15.08849162,0.0001148,53.2166,177.0281,67.5595,292.5518,0.00030776,4.615e-05,0.0,0 STARLINK-5453,1 54773U 22175R   23092.54689382  .00004615  00000-0  30776-3 0  9996,2 54773  53.2166 177.0281 0001148  67.5595 292.5518 15.08849162 18069,6917.852,95.437,540.512,538.923,0.0
54773.0,STARLINK-5453,PAYLOAD,2023-04-02 14:42:54,15.08855553,0.000122,53.2168,176.7301,68.9111,291.2012,0.00041343,6.301e-05,0.0,0 STARLINK-5453,1 54773U 22175R   23092.61313135  .00006301  00000-0  41343-3 0  9990,2 54773  53.2168 176.7301 0001220  68.9111 291.2012 15.08855553 15917,6917.833,95.437,540.542,538.854,0.0
54773.0,STARLINK-5453,PAYLOAD,2023-04-03 05:01:23,15.0883843,0.0001475,53.2163,174.0559,71.0522,289.063,0.00017368,2.477e-05,0.0,0 STARLINK-5453,1 54773U 22175R   23093.20930008  .00002477  00000-0  17368-3 0  9990,2 54773  53.2163 174.0559 0001475  71.0522 289.0630 15.08838430 16008,6917.885,95.438,540.771,538.73,0.0
54773.0,STARLINK-5453,PAYLOAD,2023-04-03 11:22:56,15.08835663,0.0001473,53.2168,172.8653,72.1592,287.9561,-1.7361e-05,-5.64e-06,0.0,0 STARLINK-5453,1 54773U 22175R   23093.47426057 -.00000564  00000-0 -17361-4 0  9994,2 54773  53.2168 172.8653 0001473  72.1592 287.9561 15.08835663 18200,6917.894,95.438,540.778,538.74,0.0
54773.0,STARLINK-5453,PAYLOAD,2023-04-04 11:13:42,15.0885025,0.0001501,53.2177,168.405,75.7677,284.3482,0.00025283,3.739e-05,0.0,0 STARLINK-5453,1 54773U 22175R   23094.46785599  .00003739  00000-0  25283-3 0  9999,2 54773  53.2177 168.4050 0001501  75.7677 284.3482 15.08850250 16195,6917.849,95.437,540.752,538.676,0.0
54773.0,STARLINK-5453,PAYLOAD,2023-04-05 04:42:57,15.08845102,0.0001392,53.2166,165.1349,74.298,285.8165,0.00025491,3.772e-05,0.0,0 STARLINK-5453,1 54773U 22175R   23095.19649780  .00003772  00000-0  25491-3 0  9999,2 54773  53.2166 165.1349 0001392  74.2980 285.8165 15.08845102 16304,6917.865,95.437,540.693,538.767,0.0
54773.0,STARLINK-5453,PAYLOAD,2023-04-05 11:04:29,15.08845603,0.0001262,53.2165,163.944,76.8574,283.2559,0.00019064,2.748e-05,0.0,0 STARLINK-5453,1 54773U 22175R   23095.46145642  .00002748  00000-0  19064-3 0  9998,2 54773  53.2165 163.9440 0001262  76.8574 283.2559 15.08845603 18503,6917.863,95.437,540.601,538.855,0.0
54773.0,STARLINK-5453,PAYLOAD,2023-04-06 09:19:53,15.08840777,0.0001341,53.2163,159.7819,76.7684,283.3458,1.3659e-05,-7.1e-07,0.0,0 STARLINK-5453,1 54773U 22175R   23096.38881765 -.00000071  00000-0  13659-4 0  9996,2 54773  53.2163 159.7819 0001341  76.7684 283.3458 15.08840777 16484,6917.878,95.438,540.671,538.815,0.0
54773.0,STARLINK-5453,PAYLOAD,2023-04-06 14:06:03,15.08842118,0.0001346,53.2171,158.8875,97.3746,262.7399,5.7502e-05,6.27e-06,0.0,0 STARLINK-5453,1 54773U 22175R   23096.58753528  .00000627  00000-0  57502-4 0  9994,2 54773  53.2171 158.8875 0001346  97.3746 262.7399 15.08842118 18677,6917.874,95.437,540.67,538.808,0.0
54773.0,STARLINK-5453,PAYLOAD,2023-04-07 10:46:03,15.08841955,0.0001393,53.2167,155.0213,96.7486,263.3664,7.7391e-05,9.44e-06,0.0,0 STARLINK-5453,1 54773U 22175R   23097.44865484  .00000944  00000-0  77391-4 0  9995,2 54773  53.2167 155.0213 0001393  96.7486 263.3664 15.08841955 16648,6917.874,95.437,540.703,538.776,0.0
54773.0,STARLINK-5453,PAYLOAD,2023-04-08 04:15:18,15.08837555,0.0001435,53.2175,151.7517,95.1135,265.0021,5.785e-05,6.33e-06,0.0,0 STARLINK-5453,1 54773U 22175R   23098.17729952  .00000633  00000-0  57850-4 0  9998,2 54773  53.2175 151.7517 0001435  95.1135 265.0021 15.08837555 16757,6917.888,95.438,540.746,538.76,0.0
54773.0,STARLINK-5453,PAYLOAD,2023-04-08 10:36:51,15.08838278,0.0001426,53.2177,150.5619,97.5933,262.5221,4.3478e-05,4.04e-06,0.0,0 STARLINK-5453,1 54773U 22175R   23098.44225959  .00000404  00000-0  43478-4 0  9993,2 54773  53.2177 150.5619 0001426  97.5933 262.5221 15.08838278 18952,6917.886,95.438,540.737,538.764,0.0
54773.0,STARLINK-5453,PAYLOAD,2023-04-09 12:03:01,15.08842538,0.0001382,53.2182,145.8053,96.6235,263.4915,5.0192e-05,5.11e-06,0.0,0 STARLINK-5453,1 54773U 22175R   23099.50209759  .00000511  00000-0  50192-4 0  9991,2 54773  53.2182 145.8053 0001382  96.6235 263.4915 15.08842538 16955,6917.873,95.437,540.694,538.782,0.0
54773.0,STARLINK-5453,PAYLOAD,2023-04-09 19:59:57,15.08836252,0.000139,53.2185,144.3187,97.8865,262.2285,3.292e-05,2.36e-06,0.0,0 STARLINK-5453,1 54773U 22175R   23099.83330237  .00000236  00000-0  32920-4 0  9996,2 54773  53.2185 144.3187 0001390  97.8865 262.2285 15.08836252 17001,6917.892,95.438,540.718,538.795,0.0
54773.0,STARLINK-5453,PAYLOAD,2023-04-10 07:07:39,15.08835996,0.0001378,53.2186,142.2373,98.0569,262.058,4.2647e-05,3.91e-06,0.0,0 STARLINK-5453,1 54773U 22175R   23100.29698357  .00000391  00000-0  42647-4 0  9998,2 54773  53.2186 142.2373 0001378  98.0569 262.0580 15.08835996 19233,6917.893,95.438,540.711,538.804,0.0
54773.0,STARLINK-5453,PAYLOAD,2023-04-10 19:50:44,15.08840989,0.0001407,53.2181,139.8579,93.4672,266.6481,7.5436e-05,9.13e-06,0.0,0 STARLINK-5453,1 54773U 22175R   23100.82689987  .00000913  00000-0  75436-4 0  9998,2 54773  53.2181 139.8579 0001407  93.4672 266.6481 15.08840989 19312,6917.877,95.437,540.716,538.769,0.0
54773.0,STARLINK-5453,PAYLOAD,2023-04-11 10:09:11,15.08849554,0.0001366,53.2178,137.1813,93.6786,266.4363,0.00010272,1.348e-05,0.0,0 STARLINK-5453,1 54773U 22175R   23101.42305233  .00001348  00000-0  10272-3 0  9993,2 54773  53.2178 137.1813 0001366  93.6786 266.4363 15.08849554 17246,6917.851,95.437,540.661,538.771,0.0
54773.0,STARLINK-5453,PAYLOAD,2023-04-11 19:41:31,15.08840078,0.0001243,53.2176,135.3961,95.0266,265.0868,-1.0564e-05,-4.56e-06,0.0,0 STARLINK-5453,1 54773U 22175R   23101.82050023 -.00000456  00000-0 -10564-4 0  9997,2 54773  53.2176 135.3961 0001243  95.0266 265.0868 15.08840078 17305,6917.88,95.438,540.605,538.885,0.0
54773.0,STARLINK-5453,PAYLOAD,2023-04-12 08:24:36,15.08833173,0.0001263,53.2177,133.0181,94.1794,265.9343,-2.7865e-06,-3.32e-06,0.0,0 STARLINK-5453,1 54773U 22175R   23102.35042602 -.00000332  00000-0 -27865-5 0  9996,2 54773  53.2177 133.0181 0001263  94.1794 265.9343 15.08833173 17386,6917.901,95.438,540.64,538.893,0.0
54773.0,STARLINK-5453,PAYLOAD,2023-04-12 13:10:44,15.08848931,0.0001203,53.218,132.1266,84.3917,275.7212,0.00011652,1.567e-05,0.0,0 STARLINK-5453,1 54773U 22175R   23102.54913190  .00001567  00000-0  11652-3 0  9990,2 54773  53.2180 132.1266 0001203  84.3917 275.7212 15.08848931 19571,6917.853,95.437,540.55,538.886,0.0
54773.0,STARLINK-5453,PAYLOAD,2023-04-12 19:32:17,15.08853879,0.0001161,53.2176,130.9389,81.1385,278.9739,0.00012296,1.67e-05,0.0,0 STARLINK-5453,1 54773U 22175R   23102.81408743  .00001670  00000-0  12296-3 0  9993,2 54773  53.2176 130.9389 0001161  81.1385 278.9739 15.08853879 17456,6917.838,95.437,540.506,538.9,0.0
54773.0,STARLINK-5453,PAYLOAD,2023-04-13 08:15:21,15.08863921,0.0001247,53.2177,128.5597,78.8426,281.2707,0.00011505,1.545e-05,0.0,0 STARLINK-5453,1 54773U 22175R   23103.34399674  .00001545  00000-0  11505-3 0  9997,2 54773  53.2177 128.5597 0001247  78.8426 281.2707 15.08863921 19694,6917.807,95.436,540.535,538.81,0.0
